PROBA-1                 
1 26958U 01049B   26160.10498532  .00002851  00000+0  18612-3 0  9997
2 26958  97.9600 168.3553 0055574 148.9968 211.4559 15.07461421342406
CUTE-1 (CO-55)          
1 27844U 03031E   26159.88839157  .00000286  00000+0  14250-3 0  9994
2 27844  98.6735 168.5516 0008985 202.7480 157.3302 14.24330680190495
CUBESAT XI-IV (CO-57)   
1 27848U 03031J   26160.01325553  .00000222  00000+0  11652-3 0  9998
2 27848  98.6766 168.3941 0008561 222.5153 137.5363 14.23616414190218
APRIZESAT 4             
1 35684U 09041D   26160.09779992  .00000574  00000+0  75109-4 0  9998
2 35684  98.1412 235.2570 0042967 349.6861  10.3466 14.83868357910162
APRIZESAT 3             
1 35686U 09041F   26160.14077701  .00001181  00000+0  10651-3 0  9990
2 35686  98.2052 312.9801 0062793  93.5826 267.2578 14.96217497915170
PROBA-2                 
1 36037U 09059B   26160.12495095  .00000169  00000+0  49869-4 0  9997
2 36037  98.2451 343.5897 0012219 309.4976  50.5140 14.54858914880350
APRIZESAT 5             
1 37792U 11044E   26159.76500817  .00001235  00000+0  16297-3 0  9993
2 37792  98.2453  92.5668 0052995  31.1827 329.2511 14.81058298797540
APRIZESAT 6             
1 37793U 11044F   26160.00924682  .00000629  00000+0  95913-4 0  9992
2 37793  98.2372  70.3418 0044354 111.4244 269.4678 14.76903526795941
PROBA-V                 
1 39159U 13021A   26160.17697286  .00000069  00000+0  48089-4 0  9992
2 39159  98.3581 139.1793 0004782 142.6911 217.4601 14.23595264679971
APRIZESAT 7             
1 39416U 13066A   26160.10367328  .00000967  00000+0  10116-3 0  9997
2 39416  97.7704 113.4398 0034474 236.8765 122.9144 14.91547053680025
APRIZESAT 8             
1 39425U 13066K   26159.80102691  .00001074  00000+0  12216-3 0  9995
2 39425  97.8218 107.3862 0044840 314.9851  44.7734 14.87636587678429
BUGSAT-1 (TITA)         
1 40014U 14033E   26160.17931310  .00005431  00000+0  28812-3 0  9996
2 40014  98.0419 252.2602 0027471 205.7397 154.2468 15.15499984654623
SAUDISAT 4              
1 40016U 14033G   26160.13853137  .00000683  00000+0  96497-4 0  9993
2 40016  97.7574 306.5523 0046232  99.3622 261.2821 14.79533483644883
APRIZESAT 9             
1 40018U 14033J   26159.85903542  .00000650  00000+0  10298-3 0  9996
2 40018  97.9050 293.2617 0065141 226.2341 133.3467 14.74203558642336
APRIZESAT 10            
1 40019U 14033K   26160.09941911  .00000356  00000+0  64079-4 0  9997
2 40019  97.9640 287.2397 0077589 300.1167  59.2365 14.70875323641060
TECHDEMOSAT-1 (TDS-1)   
1 40076U 14037H   26159.89294051  .00007617  00000+0  43351-3 0  9992
2 40076  98.3813 151.2845 0004621 305.0673  55.0122 15.13172582646976
TECHNOSAT               
1 42829U 17042E   26159.87151329  .00002942  00000+0  21128-3 0  9991
2 42829  97.4266 317.8474 0018845 120.4695 239.8397 15.04904068485452
FLYING LAPTOP           
1 42831U 17042G   26160.18646578  .00002971  00000+0  23584-3 0  9995
2 42831  97.4658 316.0298 0019150 147.7606 212.4793 15.01092033485251
HAWK-A                  
1 43765U 18099H   26160.07834816  .00005409  00000+0  21928-3 0  9996
2 43765  97.3918 212.4200 0033473 315.7969  44.0595 15.24546879411863
HAWK-B                  
1 43794U 18099AN  26160.09024325  .00005257  00000+0  22543-3 0  9991
2 43794  97.3968 211.8640 0031129 334.5859  25.3845 15.22735797411805
HAWK-C                  
1 43799U 18099AT  26160.13868051  .00006596  00000+0  23893-3 0  9999
2 43799  97.3894 213.3527 0039146 315.4758  44.3338 15.27990692412689
SALSAT                  
1 46495U 20068K   26159.90359286  .00007690  00000+0  27004-3 0  9996
2 46495  97.8856 162.4647 0008807 341.8369  18.2554 15.29680035314091
HAWK-2C                 
1 47502U 21006CT  26160.13201992  .00005612  00000+0  16986-3 0  9995
2 47502  97.2285 204.6031 0005772 216.0578 144.0276 15.34565658298268
HAWK-2A                 
1 47505U 21006CW  26160.06938485  .00005440  00000+0  16467-3 0  9997
2 47505  97.2326 205.2147 0005213 220.2376 139.8482 15.34579486298259
HAWK-2B                 
1 47508U 21006CZ  26160.06535226  .00006309  00000+0  19010-3 0  9998
2 47508  97.2197 203.5556 0005750 218.2797 141.8039 15.34654845298257
HAWK-3B                 
1 48931U 21059BE  26160.09826161  .00039788  00000+0  34730-3 0  9994
2 48931  97.6681 356.0462 0003858   8.0463 352.0859 15.68868429276582
HAWK-3C                 
1 48948U 21059BX  26160.09793955  .00038674  00000+0  33764-3 0  9995
2 48948  97.6797   1.7168 0004270   9.5786 350.5555 15.68867580276581
HAWK-3A                 
1 48957U 21059CG  26160.09784262  .00039715  00000+0  34666-3 0  9995
2 48957  97.6738 358.9287 0004300  11.6498 348.4861 15.68866705276587
HAWK-5C                 
1 52754U 22057Y   26160.17437272  .00017726  00000+0  30551-3 0  9996
2 52754  97.6586 319.3276 0005361 106.3782 253.8059 15.51106988225105
HAWK-5B                 
1 52756U 22057AA  26160.17422534  .00017411  00000+0  30008-3 0  9991
2 52756  97.6596 317.6760 0006033  99.4074 260.7859 15.51107127225101
HAWK-5A                 
1 52757U 22057AB  26160.17400146  .00017484  00000+0  30137-3 0  9990
2 52757  97.6597 318.5075 0005953 102.8947 257.2970 15.51102908225107
